{
  "type": "FeatureCollection",
  "features": [
    {
      "type": "Feature",
      "properties": {
        "norad_id": 43823,
        "name": "GEO-KOMPSAT-2A",
        "group": "weather",
        "lat": 0.03658024365077668,
        "lon": 166.26008389193305,
        "alt_km": 35785.480239759316,
        "timestamp": "2025-12-04T21:36:15.516740+00:00",
        "meta_object_name": "GEO-KOMPSAT-2A",
        "meta_object_id": "2018-100A",
        "meta_epoch": "2025-12-04T12:37:25.948128",
        "meta_mean_motion": 1.00269299,
        "meta_eccentricity": 5.06e-05,
        "meta_inclination": 0.0604,
        "meta_ra_of_asc_node": 120.8379,
        "meta_arg_of_pericenter": 95.9371,
        "meta_mean_anomaly": 174.4371,
        "meta_ephemeris_type": 0,
        "meta_classification_type": "U",
        "meta_norad_cat_id": 43823,
        "meta_element_set_no": 999,
        "meta_rev_at_epoch": 2567,
        "meta_bstar": 0,
        "meta_mean_motion_dot": -3.29e-06,
        "meta_mean_motion_ddot": 0,
        "tle_line1": "1 43823U 18100A   25338.52599477 -.00000329  00000+0  00000+0 0  9992",
        "tle_line2": "2 43823   0.0604 120.8379 0000506  95.9371 174.4371  1.00269299 25672"
      },
      "geometry": {
        "type": "Point",
        "coordinates": [
          166.26008389193305,
          0.03658024365077668
        ]
      }
    },
    {
      "type": "Feature",
      "properties": {
        "norad_id": 44387,
        "name": "METEOR-M2 2",
        "group": "weather",
        "lat": 18.917579486004897,
        "lon": 141.61056400436112,
        "alt_km": 810.381551677564,
        "timestamp": "2025-12-04T21:36:15.516752+00:00",
        "meta_object_name": "METEOR-M2 2",
        "meta_object_id": "2019-038A",
        "meta_epoch": "2025-12-04T15:47:38.711616",
        "meta_mean_motion": 14.24286215,
        "meta_eccentricity": 9.455e-05,
        "meta_inclination": 98.8964,
        "meta_ra_of_asc_node": 318.2884,
        "meta_arg_of_pericenter": 163.992,
        "meta_mean_anomaly": 196.1288,
        "meta_ephemeris_type": 0,
        "meta_classification_type": "U",
        "meta_norad_cat_id": 44387,
        "meta_element_set_no": 999,
        "meta_rev_at_epoch": 33360,
        "meta_bstar": 0.00016104687,
        "meta_mean_motion_dot": 3.26e-06,
        "meta_mean_motion_ddot": 0,
        "tle_line1": "1 44387U 19038A   25338.65808694  .00000326  00000+0  16105-3 0  9990",
        "tle_line2": "2 44387  98.8964 318.2884 0000945 163.9920 196.1288 14.24286215333609"
      },
      "geometry": {
        "type": "Point",
        "coordinates": [
          141.61056400436112,
          18.917579486004897
        ]
      }
    },
    {
      "type": "Feature",
      "properties": {
        "norad_id": 47719,
        "name": "ARKTIKA-M 1",
        "group": "weather",
        "lat": 60.92659559175595,
        "lon": -160.2937000802295,
        "alt_km": 36616.0535528324,
        "timestamp": "2025-12-04T21:36:15.516765+00:00",
        "meta_object_name": "ARKTIKA-M 1",
        "meta_object_id": "2021-016A",
        "meta_epoch": "2025-12-01T02:41:41.634816",
        "meta_mean_motion": 2.00613156,
        "meta_eccentricity": 0.71974708,
        "meta_inclination": 63.1756,
        "meta_ra_of_asc_node": 85.6045,
        "meta_arg_of_pericenter": 269.084,
        "meta_mean_anomaly": 15.7076,
        "meta_ephemeris_type": 0,
        "meta_classification_type": "U",
        "meta_norad_cat_id": 47719,
        "meta_element_set_no": 999,
        "meta_rev_at_epoch": 3481,
        "meta_bstar": 0,
        "meta_mean_motion_dot": -1.2e-07,
        "meta_mean_motion_ddot": 0,
        "tle_line1": "1 47719U 21016A   25335.11228744 -.00000012  00000+0  00000+0 0  9997",
        "tle_line2": "2 47719  63.1756  85.6045 7197470 269.0840  15.7076  2.00613156 34816"
      },
      "geometry": {
        "type": "Point",
        "coordinates": [
          -160.2937000802295,
          60.92659559175595
        ]
      }
    },
    {
      "type": "Feature",
      "properties": {
        "norad_id": 49008,
        "name": "FENGYUN 3E",
        "group": "weather",
        "lat": -63.10078413940108,
        "lon": 141.84630723375167,
        "alt_km": 832.7770700363108,
        "timestamp": "2025-12-04T21:36:15.516778+00:00",
        "meta_object_name": "FENGYUN 3E",
        "meta_object_id": "2021-062A",
        "meta_epoch": "2025-12-04T15:22:58.395360",
        "meta_mean_motion": 14.19878335,
        "meta_eccentricity": 7.056e-05,
        "meta_inclination": 98.7476,
        "meta_ra_of_asc_node": 339.2582,
        "meta_arg_of_pericenter": 318.2715,
        "meta_mean_anomaly": 41.8408,
        "meta_ephemeris_type": 0,
        "meta_classification_type": "U",
        "meta_norad_cat_id": 49008,
        "meta_element_set_no": 999,
        "meta_rev_at_epoch": 22897,
        "meta_bstar": 4.9356575e-05,
        "meta_mean_motion_dot": 6.1e-07,
        "meta_mean_motion_ddot": 0,
        "tle_line1": "1 49008U 21062A   25338.64095365  .00000061  00000+0  49357-4 0  9999",
        "tle_line2": "2 49008  98.7476 339.2582 0000705 318.2715  41.8408 14.19878335228977"
      },
      "geometry": {
        "type": "Point",
        "coordinates": [
          141.84630723375167,
          -63.10078413940108
        ]
      }
    },
    {
      "type": "Feature",
      "properties": {
        "norad_id": 51850,
        "name": "GOES 18",
        "group": "weather",
        "lat": 0.014679193905945446,
        "lon": -98.9980155214856,
        "alt_km": 35783.35589048245,
        "timestamp": "2025-12-04T21:36:15.516790+00:00",
        "meta_object_name": "GOES 18",
        "meta_object_id": "2022-021A",
        "meta_epoch": "2025-12-04T13:54:38.820672",
        "meta_mean_motion": 1.00270877,
        "meta_eccentricity": 8.066e-05,
        "meta_inclination": 0.0021,
        "meta_ra_of_asc_node": 110.208,
        "meta_arg_of_pericenter": 180.9876,
        "meta_mean_anomaly": 214.1126,
        "meta_ephemeris_type": 0,
        "meta_classification_type": "U",
        "meta_norad_cat_id": 51850,
        "meta_element_set_no": 999,
        "meta_rev_at_epoch": 464,
        "meta_bstar": 0,
        "meta_mean_motion_dot": 1.11e-06,
        "meta_mean_motion_ddot": 0,
        "tle_line1": "1 51850U 22021A   25338.57961598  .00000111  00000+0  00000+0 0  9998",
        "tle_line2": "2 51850   0.0021 110.2080 0000806 180.9876 214.1126  1.00270877  4642"
      },
      "geometry": {
        "type": "Point",
        "coordinates": [
          -98.9980155214856,
          0.014679193905945446
        ]
      }
    },
    {
      "type": "Feature",
      "properties": {
        "norad_id": 54234,
        "name": "NOAA 21 (JPSS-2)",
        "group": "weather",
        "lat": -77.38767480866507,
        "lon": 51.84108711138556,
        "alt_km": 835.8707635461396,
        "timestamp": "2025-12-04T21:36:15.516801+00:00",
        "meta_object_name": "NOAA 21 (JPSS-2)",
        "meta_object_id": "2022-150A",
        "meta_epoch": "2025-12-04T13:36:44.825472",
        "meta_mean_motion": 14.19520668,
        "meta_eccentricity": 0.00025035,
        "meta_inclination": 98.745,
        "meta_ra_of_asc_node": 274.9779,
        "meta_arg_of_pericenter": 53.3908,
        "meta_mean_anomaly": 306.7498,
        "meta_ephemeris_type": 0,
        "meta_classification_type": "U",
        "meta_norad_cat_id": 54234,
        "meta_element_set_no": 999,
        "meta_rev_at_epoch": 15893,
        "meta_bstar": 0.00011911678,
        "meta_mean_motion_dot": 2.07e-06,
        "meta_mean_motion_ddot": 0,
        "tle_line1": "1 54234U 22150A   25338.56718548  .00000207  00000+0  11912-3 0  9998",
        "tle_line2": "2 54234  98.7450 274.9779 0002503  53.3908 306.7498 14.19520668158931"
      },
      "geometry": {
        "type": "Point",
        "coordinates": [
          51.84108711138556,
          -77.38767480866507
        ]
      }
    },
    {
      "type": "Feature",
      "properties": {
        "norad_id": 54743,
        "name": "METEOSAT-12 (MTG-I1)",
        "group": "weather",
        "lat": 0.11981372126434357,
        "lon": 37.74437370540262,
        "alt_km": 35791.10969012231,
        "timestamp": "2025-12-04T21:36:15.516815+00:00",
        "meta_object_name": "METEOSAT-12 (MTG-I1)",
        "meta_object_id": "2022-170C",
        "meta_epoch": "2025-12-04T05:09:49.421376",
        "meta_mean_motion": 1.00273795,
        "meta_eccentricity": 0.00015299,
        "meta_inclination": 0.7187,
        "meta_ra_of_asc_node": 30.1576,
        "meta_arg_of_pericenter": 217.1226,
        "meta_mean_anomaly": 263.1859,
        "meta_ephemeris_type": 0,
        "meta_classification_type": "U",
        "meta_norad_cat_id": 54743,
        "meta_element_set_no": 999,
        "meta_rev_at_epoch": 1102,
        "meta_bstar": 0,
        "meta_mean_motion_dot": 9e-08,
        "meta_mean_motion_ddot": 0,
        "tle_line1": "1 54743U 22170C   25338.21515534  .00000009  00000+0  00000+0 0  9999",
        "tle_line2": "2 54743   0.7187  30.1576 0001529 217.1226 263.1859  1.00273795 11020"
      },
      "geometry": {
        "type": "Point",
        "coordinates": [
          37.74437370540262,
          0.11981372126434357
        ]
      }
    }
  ]
}